{
"type": "FeatureCollection",
"name": "coastline",
"crs": { "type": "name", "properties": { "name": "urn:ogc:def:crs:OGC:1.3:CRS84" } },
"features": [
{ "type": "Feature", "properties": { }, "geometry": { "type": "Polygon", "coordinates": [ [ [ 89.44271894600007, 21.746649481000077 ], [ 89.406423373000052, 21.717352606000077 ], [ 89.395192905000044, 21.716376044000071 ], [ 89.369639519000032, 21.743312893000052 ], [ 89.364268425000034, 21.758205471000053 ], [ 89.362803582000083, 21.78384023600006 ], [ 89.365896030000044, 21.828924872000073 ], [ 89.371267123000052, 21.847154039000088 ], [ 89.384287957000083, 21.877834377000056 ], [ 89.386973504000082, 21.901190497000073 ], [ 89.382660352000073, 21.92133209800005 ], [ 89.364024285000028, 21.955064195000091 ], [ 89.359629754000082, 21.972316799000055 ], [ 89.352224155000044, 21.972316799000055 ], [ 89.345957879000082, 21.957017320000091 ], [ 89.348806186000047, 21.944159247000073 ], [ 89.355235222000033, 21.931626695000091 ], [ 89.359629754000082, 21.917669989000046 ], [ 89.359629754000082, 21.901678778000075 ], [ 89.355967644000032, 21.892523505000042 ], [ 89.33912194100003, 21.876695054000038 ], [ 89.328868035000028, 21.864650783000059 ], [ 89.322601759000065, 21.854641018000052 ], [ 89.306162957000083, 21.817613023000035 ], [ 89.301280144000032, 21.809393622000073 ], [ 89.29623457100007, 21.809068101000037 ], [ 89.29070071700005, 21.822088934000078 ], [ 89.283946160000028, 21.822088934000078 ], [ 89.28443444100003, 21.796820380000042 ], [ 89.294688347000033, 21.757798570000091 ], [ 89.29070071700005, 21.733343817000048 ], [ 89.273692254000082, 21.698797919000071 ], [ 89.27662194100003, 21.687567450000074 ], [ 89.297536655000044, 21.678127346000053 ], [ 89.285899285000028, 21.665594794000071 ], [ 89.268728061000047, 21.653998114000046 ], [ 89.248708530000044, 21.645900783000059 ], [ 89.229258660000028, 21.643947658000059 ], [ 89.210459832000083, 21.654120184000078 ], [ 89.20443769600007, 21.672674872000073 ], [ 89.20826256600003, 21.690619208000044 ], [ 89.218597852000073, 21.698553778000075 ], [ 89.220713738000029, 21.709418036000045 ], [ 89.189707879000082, 21.791245835000041 ], [ 89.188243035000028, 21.799709377000056 ], [ 89.187673373000052, 21.811509507000039 ], [ 89.183360222000033, 21.815619208000044 ], [ 89.174082879000082, 21.810044664000088 ], [ 89.164561394000032, 21.800197658000059 ], [ 89.160411004000082, 21.79132721600007 ], [ 89.154551629000082, 21.786851304000038 ], [ 89.141286655000044, 21.790228583000044 ], [ 89.119395379000082, 21.800970770000049 ], [ 89.10906009200005, 21.809515692000048 ], [ 89.104665561000047, 21.81586334800005 ], [ 89.079925977000073, 21.897406317000048 ], [ 89.07781009200005, 21.914252020000049 ], [ 89.080414259000065, 21.934881903000075 ], [ 89.09107506600003, 21.976792710000041 ], [ 89.09148196700005, 22.000230210000041 ], [ 89.084239129000082, 22.021185614000046 ], [ 89.062022332000083, 22.049505927000041 ], [ 89.057383660000028, 22.06509023600006 ], [ 89.063487175000034, 22.111029364000046 ], [ 89.060313347000033, 22.130601304000038 ], [ 89.043711785000028, 22.137396552000041 ], [ 89.048594597000033, 22.122951565000051 ], [ 89.045664910000028, 22.11204661700009 ], [ 89.039886915000068, 22.100897528000075 ], [ 89.036875847000033, 22.085598049000055 ], [ 89.040049675000034, 22.069525458000044 ], [ 89.05404707100007, 22.043646552000041 ], [ 89.057383660000028, 22.031236070000091 ], [ 89.065603061000047, 21.96710846600007 ], [ 89.060883009000065, 21.938462632000039 ], [ 89.036875847000033, 21.925116278000075 ], [ 89.02312259200005, 21.93109772300005 ], [ 89.01303144600007, 21.929429429000038 ], [ 89.008067254000082, 21.92055898600006 ], [ 89.009532097000033, 21.90460846600007 ], [ 88.993011915000068, 21.912665106000077 ], [ 88.960459832000083, 21.93431224200009 ], [ 88.94467207100007, 21.938788153000075 ], [ 88.937836134000065, 21.948716539000088 ], [ 88.934580925000034, 21.969305731000077 ], [ 88.928721550000034, 21.986558335000041 ], [ 88.913910352000073, 21.986558335000041 ], [ 88.905039910000028, 21.969427802000041 ], [ 88.910817905000044, 21.946478583000044 ], [ 88.924082879000082, 21.926336981000077 ], [ 88.937836134000065, 21.917669989000046 ], [ 88.951914910000028, 21.913885809000078 ], [ 88.968272332000083, 21.904730536000045 ], [ 88.995860222000033, 21.884182033000059 ], [ 89.015879754000082, 21.853338934000078 ], [ 89.03093509200005, 21.770453192000048 ], [ 89.043711785000028, 21.733343817000048 ], [ 89.047862175000034, 21.728013414000088 ], [ 89.067881707000083, 21.709133205000057 ], [ 89.082774285000028, 21.678208726000037 ], [ 89.08521569100003, 21.674709377000056 ], [ 89.088226759000065, 21.633734442000048 ], [ 89.082692905000044, 21.617336330000057 ], [ 89.064219597000033, 21.609198309000078 ], [ 89.053233269000032, 21.609808661000045 ], [ 89.044688347000033, 21.613511460000041 ], [ 89.038828972000033, 21.61945221600007 ], [ 89.036875847000033, 21.626898505000042 ], [ 89.033946160000028, 21.633246161000045 ], [ 89.027598504000082, 21.624579169000071 ], [ 89.019786004000082, 21.60610586100006 ], [ 89.000254754000082, 21.603420315000051 ], [ 88.975759311000047, 21.615912177000041 ], [ 88.933848504000082, 21.643947658000059 ], [ 88.896983269000032, 21.650132554000038 ], [ 88.891612175000034, 21.653509833000044 ], [ 88.88607832100007, 21.661810614000046 ], [ 88.881602410000028, 21.672023830000057 ], [ 88.872080925000034, 21.749009507000039 ], [ 88.866058790000068, 21.766831773000035 ], [ 88.85865319100003, 21.766831773000035 ], [ 88.855723504000082, 21.748846747000073 ], [ 88.841563347000033, 21.71625397300005 ], [ 88.838226759000065, 21.701971747000073 ], [ 88.842946811000047, 21.684149481000077 ], [ 88.859873894000032, 21.652573960000041 ], [ 88.85865319100003, 21.636542059000078 ], [ 88.844248894000032, 21.622219143000052 ], [ 88.823985222000033, 21.617254950000074 ], [ 88.805837436000047, 21.622870184000078 ], [ 88.797862175000034, 21.640204169000071 ], [ 88.814789259000065, 21.653876044000071 ], [ 88.818369988000029, 21.657619533000059 ], [ 88.818532748000052, 21.665838934000078 ], [ 88.816661004000082, 21.675034898000035 ], [ 88.810883009000065, 21.69171784100007 ], [ 88.804942254000082, 21.671861070000091 ], [ 88.80046634200005, 21.661851304000038 ], [ 88.79420006600003, 21.657619533000059 ], [ 88.784027540000068, 21.655951239000046 ], [ 88.779063347000033, 21.651190497000073 ], [ 88.777110222000033, 21.643540757000039 ], [ 88.776866082000083, 21.63344961100006 ], [ 88.781748894000032, 21.614243882000039 ], [ 88.791026238000029, 21.598863023000035 ], [ 88.796641472000033, 21.584418036000045 ], [ 88.790537957000083, 21.568264065000051 ], [ 88.762461785000028, 21.555853583000044 ], [ 88.72787519600007, 21.559881903000075 ], [ 88.707530144000032, 21.578314520000049 ], [ 88.722178582000083, 21.609198309000078 ], [ 88.687998894000032, 21.678127346000053 ], [ 88.68490644600007, 21.697211005000042 ], [ 88.703623894000032, 21.810614325000074 ], [ 88.698008660000028, 21.825506903000075 ], [ 88.694509311000047, 21.839829820000091 ], [ 88.714691602000073, 21.897853908000059 ], [ 88.716970248000052, 21.951971747000073 ], [ 88.722178582000083, 21.966131903000075 ], [ 88.733164910000028, 21.97719961100006 ], [ 88.746836785000028, 21.987127997000073 ], [ 88.758311394000032, 21.99945709800005 ], [ 88.76303144600007, 22.017279364000046 ], [ 88.754649285000028, 22.037583726000037 ], [ 88.717051629000082, 22.05805084800005 ], [ 88.708506707000083, 22.072211005000042 ], [ 88.714854363000029, 22.086981512000079 ], [ 88.73015384200005, 22.103583075000074 ], [ 88.76303144600007, 22.130560614000046 ], [ 88.743907097000033, 22.129339911000045 ], [ 88.726573113000029, 22.121161200000074 ], [ 88.71216881600003, 22.109035549000055 ], [ 88.701670769000032, 22.095851955000057 ], [ 88.694834832000083, 22.081529039000088 ], [ 88.692881707000083, 22.06586334800005 ], [ 88.699473504000082, 22.053208726000037 ], [ 88.718516472000033, 22.048041083000044 ], [ 88.730723504000082, 22.037176825000074 ], [ 88.723317905000044, 22.013088283000059 ], [ 88.701670769000032, 21.97601959800005 ], [ 88.698415561000047, 21.962591864000046 ], [ 88.689952019000032, 21.945990302000041 ], [ 88.678721550000034, 21.936672268000052 ], [ 88.667002800000034, 21.945013739000046 ], [ 88.656260613000029, 21.941066799000055 ], [ 88.642588738000029, 21.940904039000088 ], [ 88.630869988000029, 21.945461330000057 ], [ 88.625987175000034, 21.955511786000045 ], [ 88.627452019000032, 21.970404364000046 ], [ 88.631683790000068, 21.979803778000075 ], [ 88.646332227000073, 22.000230210000041 ], [ 88.653493686000047, 22.018011786000045 ], [ 88.652598504000082, 22.031805731000077 ], [ 88.648773634000065, 22.046047268000052 ], [ 88.645030144000032, 22.075140692000048 ], [ 88.639496290000068, 22.097235419000071 ], [ 88.639496290000068, 22.109523830000057 ], [ 88.656993035000028, 22.151068427000041 ], [ 88.674001498000052, 22.162054755000042 ], [ 88.683116082000083, 22.184963283000059 ], [ 88.679942254000082, 22.204413153000075 ], [ 88.660166863000029, 22.205023505000042 ], [ 88.661143425000034, 22.198960679000038 ], [ 88.656016472000033, 22.183254299000055 ], [ 88.64966881600003, 22.169094143000052 ], [ 88.646332227000073, 22.167792059000078 ], [ 88.644297722000033, 22.162298895000049 ], [ 88.634938998000052, 22.144964911000045 ], [ 88.630869988000029, 22.125799872000073 ], [ 88.622080925000034, 22.116034247000073 ], [ 88.619151238000029, 22.109523830000057 ], [ 88.618337436000047, 22.10297272300005 ], [ 88.619965040000068, 22.078314520000049 ], [ 88.625498894000032, 22.059271552000041 ], [ 88.625987175000034, 22.048041083000044 ], [ 88.62037194100003, 22.029974677000041 ], [ 88.602549675000034, 22.006415106000077 ], [ 88.598643425000034, 21.990301825000074 ], [ 88.600271030000044, 21.947211005000042 ], [ 88.598399285000028, 21.929348049000055 ], [ 88.567067905000044, 21.850816148000035 ], [ 88.564626498000052, 21.83234284100007 ], [ 88.565440300000034, 21.771185614000046 ], [ 88.564626498000052, 21.766831773000035 ], [ 88.58130944100003, 21.769435940000051 ], [ 88.604177280000044, 21.77875397300005 ], [ 88.624034050000034, 21.778021552000041 ], [ 88.632823113000029, 21.750067450000074 ], [ 88.63021894600007, 21.731756903000075 ], [ 88.623383009000065, 21.710272528000075 ], [ 88.61264082100007, 21.697495835000041 ], [ 88.598643425000034, 21.70538971600007 ], [ 88.591807488000029, 21.70538971600007 ], [ 88.599619988000029, 21.637274481000077 ], [ 88.59506269600007, 21.612127997000073 ], [ 88.578135613000029, 21.623439846000053 ], [ 88.578135613000029, 21.571682033000059 ], [ 88.572276238000029, 21.557928778000075 ], [ 88.558929884000065, 21.555568752000056 ], [ 88.544769727000073, 21.561997789000088 ], [ 88.53646894600007, 21.575100002000056 ], [ 88.530284050000034, 21.564398505000042 ], [ 88.529633009000065, 21.55337148600006 ], [ 88.53443444100003, 21.542914130000042 ], [ 88.543955925000034, 21.534084377000056 ], [ 88.51295006600003, 21.524644273000035 ], [ 88.493907097000033, 21.534816799000055 ], [ 88.48796634200005, 21.556545315000051 ], [ 88.495616082000083, 21.581854559000078 ], [ 88.502126498000052, 21.589341539000088 ], [ 88.508799675000034, 21.59438711100006 ], [ 88.514008009000065, 21.600816148000035 ], [ 88.516123894000032, 21.612616278000075 ], [ 88.516612175000034, 21.62641022300005 ], [ 88.51880944100003, 21.639146226000037 ], [ 88.522959832000083, 21.649888414000088 ], [ 88.529633009000065, 21.657619533000059 ], [ 88.509532097000033, 21.712307033000059 ], [ 88.504893425000034, 21.741522528000075 ], [ 88.512705925000034, 21.763413804000038 ], [ 88.53288821700005, 21.795314846000053 ], [ 88.531016472000033, 21.824123440000051 ], [ 88.515879754000082, 21.850816148000035 ], [ 88.495616082000083, 21.876695054000038 ], [ 88.514659050000034, 21.916205145000049 ], [ 88.51498457100007, 21.937201239000046 ], [ 88.495616082000083, 21.95180898600006 ], [ 88.499847852000073, 21.933661200000074 ], [ 88.492360873000052, 21.922023830000057 ], [ 88.481211785000028, 21.909898179000038 ], [ 88.474457227000073, 21.890326239000046 ], [ 88.477061394000032, 21.87181224200009 ], [ 88.492035352000073, 21.837144273000035 ], [ 88.495616082000083, 21.81867096600007 ], [ 88.49350019600007, 21.805161851000037 ], [ 88.488291863000029, 21.803656317000048 ], [ 88.481455925000034, 21.805161851000037 ], [ 88.474457227000073, 21.800970770000049 ], [ 88.468272332000083, 21.777248440000051 ], [ 88.457692905000044, 21.758856512000079 ], [ 88.453379754000082, 21.741766669000071 ], [ 88.452159050000034, 21.722805080000057 ], [ 88.45476321700005, 21.70538971600007 ], [ 88.468597852000073, 21.677150783000059 ], [ 88.472178582000083, 21.663275458000044 ], [ 88.468272332000083, 21.643947658000059 ], [ 88.45630944100003, 21.624009507000039 ], [ 88.441905144000032, 21.616156317000048 ], [ 88.426117384000065, 21.611029364000046 ], [ 88.409678582000083, 21.599269924000055 ], [ 88.393077019000032, 21.60024648600006 ], [ 88.383555535000028, 21.631415106000077 ], [ 88.382823113000029, 21.67133209800005 ], [ 88.392588738000029, 21.698553778000075 ], [ 88.380625847000033, 21.696193752000056 ], [ 88.36451256600003, 21.68695709800005 ], [ 88.355723504000082, 21.684963283000059 ], [ 88.346202019000032, 21.688625393000052 ], [ 88.340668165000068, 21.697495835000041 ], [ 88.336436394000032, 21.708726304000038 ], [ 88.331228061000047, 21.71906159100007 ], [ 88.326345248000052, 21.711086330000057 ], [ 88.324717644000032, 21.701361395000049 ], [ 88.32740319100003, 21.691107489000046 ], [ 88.345713738000029, 21.670599677000041 ], [ 88.349457227000073, 21.660956122000073 ], [ 88.348806186000047, 21.650295315000051 ], [ 88.345469597000033, 21.636542059000078 ], [ 88.335459832000083, 21.615790106000077 ], [ 88.321787957000083, 21.605658270000049 ], [ 88.309743686000047, 21.610174872000073 ], [ 88.304453972000033, 21.63344961100006 ], [ 88.30201256600003, 21.745184637000079 ], [ 88.29818769600007, 21.764105536000045 ], [ 88.289805535000028, 21.780218817000048 ], [ 88.27312259200005, 21.797919012000079 ], [ 88.261566602000073, 21.798651434000078 ], [ 88.264170769000032, 21.775295315000051 ], [ 88.295420769000032, 21.676581122000073 ], [ 88.297048373000052, 21.653876044000071 ], [ 88.294444207000083, 21.642808335000041 ], [ 88.284190300000034, 21.621242580000057 ], [ 88.283376498000052, 21.609198309000078 ], [ 88.287608269000032, 21.600287177000041 ], [ 88.300629102000073, 21.589341539000088 ], [ 88.304453972000033, 21.581854559000078 ], [ 88.305837436000047, 21.571682033000059 ], [ 88.303721550000034, 21.568793036000045 ], [ 88.297862175000034, 21.566555080000057 ], [ 88.287119988000029, 21.558294989000046 ], [ 88.27898196700005, 21.555161851000037 ], [ 88.266123894000032, 21.553859768000052 ], [ 88.254405144000032, 21.554673570000091 ], [ 88.24927819100003, 21.558294989000046 ], [ 88.245941602000073, 21.579901434000078 ], [ 88.237478061000047, 21.601711330000057 ], [ 88.224375847000033, 21.613023179000038 ], [ 88.20826256600003, 21.60297272300005 ], [ 88.189463738000029, 21.641791083000044 ], [ 88.181895379000082, 21.665228583000044 ], [ 88.18091881600003, 21.684963283000059 ], [ 88.190440300000034, 21.704087632000039 ], [ 88.203461134000065, 21.724351304000038 ], [ 88.210459832000083, 21.747259833000044 ], [ 88.201426629000082, 21.774318752000056 ], [ 88.209727410000028, 21.788560289000088 ], [ 88.203786655000044, 21.80540599200009 ], [ 88.154063347000033, 21.888088283000059 ], [ 88.156423373000052, 21.897853908000059 ], [ 88.15943444100003, 21.906154690000051 ], [ 88.146739129000082, 21.959214585000041 ], [ 88.149912957000083, 21.976385809000078 ], [ 88.156260613000029, 21.99087148600006 ], [ 88.164317254000082, 22.003119208000044 ], [ 88.206797722000033, 22.05337148600006 ], [ 88.222422722000033, 22.077948309000078 ], [ 88.212738477000073, 22.100043036000045 ], [ 88.203379754000082, 22.151760158000059 ], [ 88.198008660000028, 22.167792059000078 ], [ 88.16529381600003, 22.18500397300005 ], [ 88.11841881600003, 22.200181382000039 ], [ 88.08130944100003, 22.217352606000077 ], [ 88.077321811000047, 22.240423895000049 ], [ 88.059743686000047, 22.229478257000039 ], [ 88.043467644000032, 22.224758205000057 ], [ 88.02702884200005, 22.227850653000075 ], [ 88.00904381600003, 22.240423895000049 ], [ 87.985118035000028, 22.26593659100007 ], [ 87.972666863000029, 22.283189195000091 ], [ 87.967458530000044, 22.298488674000055 ], [ 87.96420332100007, 22.319281317000048 ], [ 87.950694207000083, 22.35618724200009 ], [ 87.947520379000082, 22.373846747000073 ], [ 87.946136915000068, 22.394924221000053 ], [ 87.940440300000034, 22.413031317000048 ], [ 87.927989129000082, 22.424221096000053 ], [ 87.906586134000065, 22.424750067000048 ], [ 87.906586134000065, 22.41860586100006 ], [ 87.922862175000034, 22.397772528000075 ], [ 87.935801629000082, 22.355169989000046 ], [ 87.947520379000082, 22.27765534100007 ], [ 87.95281009200005, 22.26243724200009 ], [ 87.965342644000032, 22.244818427000041 ], [ 87.991953972000033, 22.215887762000079 ], [ 88.008474155000044, 22.204901434000078 ], [ 88.025401238000029, 22.200913804000038 ], [ 88.057383660000028, 22.198879299000055 ], [ 88.095469597000033, 22.191229559000078 ], [ 88.132578972000033, 22.17914459800005 ], [ 88.160980665000068, 22.15656159100007 ], [ 88.17351321700005, 22.116888739000046 ], [ 88.164317254000082, 22.089789130000042 ], [ 88.140635613000029, 22.060126044000071 ], [ 88.111175977000073, 22.034857489000046 ], [ 88.084727410000028, 22.020697333000044 ], [ 88.048594597000033, 22.020738023000035 ], [ 88.043142123000052, 22.017279364000046 ], [ 88.045176629000082, 22.006537177000041 ], [ 88.049001498000052, 21.995428778000075 ], [ 88.050791863000029, 21.98501211100006 ], [ 88.046885613000029, 21.97601959800005 ], [ 88.032399936000047, 21.957180080000057 ], [ 87.98365319100003, 21.854193427000041 ], [ 87.970469597000033, 21.836493231000077 ], [ 87.957774285000028, 21.828924872000073 ], [ 87.948008660000028, 21.825384833000044 ], [ 87.909027540000068, 21.798814195000091 ], [ 87.902191602000073, 21.796820380000042 ], [ 87.899180535000028, 21.794826565000051 ], [ 87.895681186000047, 21.78937409100007 ], [ 87.894786004000082, 21.77875397300005 ], [ 87.892914259000065, 21.774318752000056 ], [ 87.867198113000029, 21.750799872000073 ], [ 87.833994988000029, 21.729315497000073 ], [ 87.755707227000073, 21.69171784100007 ], [ 87.703786655000044, 21.655503648000035 ], [ 87.683848504000082, 21.650132554000038 ], [ 87.642100457000083, 21.652085679000038 ], [ 87.621348504000082, 21.650620835000041 ], [ 87.468760613000029, 21.611395575000074 ], [ 87.341807488000029, 21.562404690000051 ], [ 87.293467644000032, 21.553656317000048 ], [ 87.256114129000082, 21.561997789000088 ], [ 87.245941602000073, 21.556586005000042 ], [ 87.235199415000068, 21.554510809000078 ], [ 87.211436394000032, 21.554592190000051 ], [ 87.200938347000033, 21.551988023000035 ], [ 87.113047722000033, 21.507961330000057 ], [ 87.06373131600003, 21.475002346000053 ], [ 86.91765384200005, 21.327378648000035 ], [ 86.866953972000033, 21.256048895000049 ], [ 86.83725019600007, 21.174709377000056 ], [ 86.844004754000082, 21.082220770000049 ], [ 86.952159050000034, 20.849107164000088 ], [ 86.965668165000068, 20.805975653000075 ], [ 86.953868035000028, 20.780585028000075 ], [ 86.936289910000028, 20.787502346000053 ], [ 86.916514519000032, 20.788072007000039 ], [ 86.878754102000073, 20.780585028000075 ], [ 86.889333530000044, 20.764471747000073 ], [ 86.910655144000032, 20.756415106000077 ], [ 86.957204623000052, 20.753241278000075 ], [ 86.979991082000083, 20.755560614000046 ], [ 86.986582879000082, 20.751857815000051 ], [ 86.994883660000028, 20.738959052000041 ], [ 87.000010613000029, 20.728216864000046 ], [ 87.001800977000073, 20.718980210000041 ], [ 86.998708530000044, 20.711127020000049 ], [ 86.988617384000065, 20.704250393000052 ], [ 86.975759311000047, 20.710679429000038 ], [ 86.961192254000082, 20.712836005000042 ], [ 86.948252800000034, 20.709051825000074 ], [ 86.940196160000028, 20.69798411700009 ], [ 86.951914910000028, 20.697007554000038 ], [ 86.961192254000082, 20.695054429000038 ], [ 86.968516472000033, 20.691148179000038 ], [ 86.97429446700005, 20.684393622000073 ], [ 86.98170006600003, 20.685370184000078 ], [ 86.986501498000052, 20.684393622000073 ], [ 86.990244988000029, 20.67999909100007 ], [ 86.994883660000028, 20.670721747000073 ], [ 87.019379102000073, 20.680365302000041 ], [ 87.043223504000082, 20.69798411700009 ], [ 87.027517123000052, 20.679673570000091 ], [ 87.00359134200005, 20.657049872000073 ], [ 86.97624759200005, 20.637884833000044 ], [ 86.92318769600007, 20.62173086100006 ], [ 86.774180535000028, 20.511948960000041 ], [ 86.751475457000083, 20.489162502000056 ], [ 86.733897332000083, 20.462225653000075 ], [ 86.724619988000029, 20.43195221600007 ], [ 86.720469597000033, 20.368475653000075 ], [ 86.741953972000033, 20.37954336100006 ], [ 86.756358269000032, 20.393744208000044 ], [ 86.769786004000082, 20.40070221600007 ], [ 86.78874759200005, 20.390122789000088 ], [ 86.788259311000047, 20.402818101000037 ], [ 86.789805535000028, 20.41469961100006 ], [ 86.79615319100003, 20.437323309000078 ], [ 86.80982506600003, 20.415106512000079 ], [ 86.79420006600003, 20.378159898000035 ], [ 86.768321160000028, 20.343451239000046 ], [ 86.751475457000083, 20.328070380000042 ], [ 86.739268425000034, 20.324204820000091 ], [ 86.719737175000034, 20.31509023600006 ], [ 86.701670769000032, 20.303778387000079 ], [ 86.693695509000065, 20.293931382000039 ], [ 86.701670769000032, 20.284654039000088 ], [ 86.719737175000034, 20.29173411700009 ], [ 86.754649285000028, 20.314439195000091 ], [ 86.717458530000044, 20.286932684000078 ], [ 86.62818444100003, 20.235256252000056 ], [ 86.583832227000073, 20.21820709800005 ], [ 86.534190300000034, 20.206122137000079 ], [ 86.511485222000033, 20.197455145000049 ], [ 86.495127800000034, 20.184068101000037 ], [ 86.490407748000052, 20.174058335000041 ], [ 86.478851759000065, 20.129339911000045 ], [ 86.468516472000033, 20.109279690000051 ], [ 86.467133009000065, 20.094671942000048 ], [ 86.415049675000034, 20.036322333000044 ], [ 86.391449415000068, 20.020209052000041 ], [ 86.396739129000082, 20.009955145000049 ], [ 86.404144727000073, 20.002630927000041 ], [ 86.414073113000029, 19.998846747000073 ], [ 86.426280144000032, 19.999172268000052 ], [ 86.397227410000028, 19.982855536000045 ], [ 86.348399285000028, 20.008856512000079 ], [ 86.275401238000029, 20.067368882000039 ], [ 86.231293165000068, 20.064886786000045 ], [ 86.209157748000052, 20.066636460000041 ], [ 86.199717644000032, 20.077948309000078 ], [ 86.195974155000044, 20.080308335000041 ], [ 86.173024936000047, 20.10219961100006 ], [ 86.168467644000032, 20.113185940000051 ], [ 86.163096550000034, 20.134833075000074 ], [ 86.158702019000032, 20.143133856000077 ], [ 86.152517123000052, 20.143133856000077 ], [ 86.145030144000032, 20.122015692000048 ], [ 86.154307488000029, 20.089992580000057 ], [ 86.158702019000032, 20.081040757000039 ], [ 86.167735222000033, 20.072943427000041 ], [ 86.187754754000082, 20.063666083000044 ], [ 86.213715040000068, 20.04242584800005 ], [ 86.230235222000033, 20.035305080000057 ], [ 86.268565300000034, 20.026434637000079 ], [ 86.273448113000029, 20.026190497000073 ], [ 86.284678582000083, 20.027492580000057 ], [ 86.289073113000029, 20.026434637000079 ], [ 86.293223504000082, 20.021429755000042 ], [ 86.29420006600003, 20.01040273600006 ], [ 86.295909050000034, 20.00657786700009 ], [ 86.302907748000052, 19.999090887000079 ], [ 86.308116082000083, 19.992092190000051 ], [ 86.314952019000032, 19.986883856000077 ], [ 86.326670769000032, 19.984849351000037 ], [ 86.341563347000033, 19.979885158000059 ], [ 86.356455925000034, 19.970404364000046 ], [ 86.37240644600007, 19.964992580000057 ], [ 86.268565300000034, 19.910345770000049 ], [ 86.111582879000082, 19.855698960000041 ], [ 86.089040561000047, 19.844224351000037 ], [ 86.078379754000082, 19.843573309000078 ], [ 86.066742384000065, 19.851996161000045 ], [ 86.056651238000029, 19.85687897300005 ], [ 86.04656009200005, 19.852525132000039 ], [ 86.037933790000068, 19.845282294000071 ], [ 86.032074415000068, 19.841498114000046 ], [ 86.013519727000073, 19.839056708000044 ], [ 85.888845248000052, 19.802964585000041 ], [ 85.846364780000044, 19.795843817000048 ], [ 85.808604363000029, 19.773382880000042 ], [ 85.788828972000033, 19.765692450000074 ], [ 85.778086785000028, 19.764634507000039 ], [ 85.744395379000082, 19.765692450000074 ], [ 85.734385613000029, 19.763617255000042 ], [ 85.714854363000029, 19.75421784100007 ], [ 85.684580925000034, 19.747748114000046 ], [ 85.62427819100003, 19.718573309000078 ], [ 85.625987175000034, 19.722886460000041 ], [ 85.63599694100003, 19.726629950000074 ], [ 85.63795006600003, 19.731634833000044 ], [ 85.614268425000034, 19.727932033000059 ], [ 85.549164259000065, 19.690619208000044 ], [ 85.480479363000029, 19.66632721600007 ], [ 85.456797722000033, 19.663316148000035 ], [ 85.449880405000044, 19.666693427000041 ], [ 85.447520379000082, 19.674627997000073 ], [ 85.446787957000083, 19.690619208000044 ], [ 85.443125847000033, 19.692450262000079 ], [ 85.43685957100007, 19.691351630000042 ], [ 85.430430535000028, 19.69171784100007 ], [ 85.426280144000032, 19.697455145000049 ], [ 85.42701256600003, 19.704087632000039 ], [ 85.431651238000029, 19.704901434000078 ], [ 85.43685957100007, 19.704657294000071 ], [ 85.439300977000073, 19.707993882000039 ], [ 85.45085696700005, 19.716294664000088 ], [ 85.477549675000034, 19.723863023000035 ], [ 85.521983269000032, 19.739081122000073 ], [ 85.525563998000052, 19.734035549000055 ], [ 85.523448113000029, 19.728705145000049 ], [ 85.51889082100007, 19.721584377000056 ], [ 85.51498457100007, 19.711127020000049 ], [ 85.558848504000082, 19.738104559000078 ], [ 85.576508009000065, 19.745835679000038 ], [ 85.56763756600003, 19.750799872000073 ], [ 85.563243035000028, 19.756903387000079 ], [ 85.56413821700005, 19.76439036700009 ], [ 85.570323113000029, 19.773179429000038 ], [ 85.567149285000028, 19.79165273600006 ], [ 85.570323113000029, 19.87563711100006 ], [ 85.557139519000032, 19.881781317000048 ], [ 85.51498457100007, 19.88930898600006 ], [ 85.476817254000082, 19.90102773600006 ], [ 85.463552280000044, 19.902899481000077 ], [ 85.440114780000044, 19.896226304000038 ], [ 85.416270379000082, 19.879787502000056 ], [ 85.374522332000083, 19.837795315000051 ], [ 85.31959069100003, 19.793646552000041 ], [ 85.304209832000083, 19.792669989000046 ], [ 85.29029381600003, 19.789943752000056 ], [ 85.278086785000028, 19.785589911000045 ], [ 85.268077019000032, 19.78001536700009 ], [ 85.246836785000028, 19.762640692000048 ], [ 85.220957879000082, 19.736029364000046 ], [ 85.203379754000082, 19.707261460000041 ], [ 85.206553582000083, 19.683783270000049 ], [ 85.189952019000032, 19.670965887000079 ], [ 85.17514082100007, 19.636908270000049 ], [ 85.165537957000083, 19.625799872000073 ], [ 85.150157097000033, 19.613470770000049 ], [ 85.140147332000083, 19.596584377000056 ], [ 85.139333530000044, 19.579779364000046 ], [ 85.151377800000034, 19.567775783000059 ], [ 85.151377800000034, 19.560288804000038 ], [ 85.139170769000032, 19.557074286000045 ], [ 85.122894727000073, 19.549017645000049 ], [ 85.108897332000083, 19.538967190000051 ], [ 85.10287519600007, 19.52960846600007 ], [ 85.104502800000034, 19.514878648000035 ], [ 85.10873457100007, 19.506781317000048 ], [ 85.115489129000082, 19.507473049000055 ], [ 85.124034050000034, 19.519354559000078 ], [ 85.128754102000073, 19.509507554000038 ], [ 85.13021894600007, 19.498724677000041 ], [ 85.128672722000033, 19.487982489000046 ], [ 85.124034050000034, 19.478338934000078 ], [ 85.135752800000034, 19.481594143000052 ], [ 85.141774936000047, 19.487127997000073 ], [ 85.14576256600003, 19.493475653000075 ], [ 85.151377800000034, 19.498846747000073 ], [ 85.162445509000065, 19.503485419000071 ], [ 85.17115319100003, 19.504461981000077 ], [ 85.178558790000068, 19.504299221000053 ], [ 85.185557488000029, 19.505682684000078 ], [ 85.202891472000033, 19.517157294000071 ], [ 85.201914910000028, 19.527085679000038 ], [ 85.196299675000034, 19.538478908000059 ], [ 85.199229363000029, 19.554103908000059 ], [ 85.20630944100003, 19.548000393000052 ], [ 85.21452884200005, 19.547267971000053 ], [ 85.223643425000034, 19.549953518000052 ], [ 85.233246290000068, 19.554103908000059 ], [ 85.203786655000044, 19.570502020000049 ], [ 85.19304446700005, 19.573919989000046 ], [ 85.19304446700005, 19.58079661700009 ], [ 85.212901238000029, 19.581122137000079 ], [ 85.223643425000034, 19.590236721000053 ], [ 85.232595248000052, 19.601548570000091 ], [ 85.247569207000083, 19.608710028000075 ], [ 85.247569207000083, 19.614935614000046 ], [ 85.24187259200005, 19.617010809000078 ], [ 85.237315300000034, 19.62055084800005 ], [ 85.234385613000029, 19.625677802000041 ], [ 85.233246290000068, 19.632554429000038 ], [ 85.236338738000029, 19.635321356000077 ], [ 85.247813347000033, 19.653143622000073 ], [ 85.247569207000083, 19.656480210000041 ], [ 85.260752800000034, 19.656073309000078 ], [ 85.309092644000032, 19.642238674000055 ], [ 85.350596550000034, 19.677639065000051 ], [ 85.363780144000032, 19.67804596600007 ], [ 85.37435957100007, 19.674709377000056 ], [ 85.383067254000082, 19.67609284100007 ], [ 85.391449415000068, 19.690619208000044 ], [ 85.399180535000028, 19.67914459800005 ], [ 85.403168165000068, 19.671291408000059 ], [ 85.404958530000044, 19.661932684000078 ], [ 85.405284050000034, 19.64594147300005 ], [ 85.384613477000073, 19.635972398000035 ], [ 85.38217207100007, 19.631089585000041 ], [ 85.380381707000083, 19.619614976000037 ], [ 85.377940300000034, 19.614935614000046 ], [ 85.36841881600003, 19.608099677000041 ], [ 85.352305535000028, 19.599432684000078 ], [ 85.336761915000068, 19.596096096000053 ], [ 85.330088738000029, 19.604966539000088 ], [ 85.326426629000082, 19.618801174000055 ], [ 85.318369988000029, 19.619533596000053 ], [ 85.311045769000032, 19.610500393000052 ], [ 85.309092644000032, 19.595038153000075 ], [ 85.303477410000028, 19.597479559000078 ], [ 85.28842207100007, 19.601263739000046 ], [ 85.302500847000033, 19.58665599200009 ], [ 85.305837436000047, 19.580145575000074 ], [ 85.302907748000052, 19.573919989000046 ], [ 85.330577019000032, 19.576402085000041 ], [ 85.576508009000065, 19.690619208000044 ], [ 85.54029381600003, 19.669582424000055 ], [ 85.463389519000032, 19.631048895000049 ], [ 85.38021894600007, 19.593817450000074 ], [ 85.336680535000028, 19.575181382000039 ], [ 85.285411004000082, 19.536281643000052 ], [ 85.240570509000065, 19.518052476000037 ], [ 85.180430535000028, 19.475002346000053 ], [ 85.069509311000047, 19.372137762000079 ], [ 84.995860222000033, 19.323309637000079 ], [ 84.872080925000034, 19.219875393000052 ], [ 84.791026238000029, 19.120591539000088 ], [ 84.775157097000033, 19.115301825000074 ], [ 84.764414910000028, 19.123439846000053 ], [ 84.750661655000044, 19.138373114000046 ], [ 84.738780144000032, 19.147650458000044 ], [ 84.73365319100003, 19.139146226000037 ], [ 84.731211785000028, 19.128810940000051 ], [ 84.720957879000082, 19.114243882000039 ], [ 84.71998131600003, 19.101629950000074 ], [ 84.722829623000052, 19.09601471600007 ], [ 84.735362175000034, 19.083197333000044 ], [ 84.740489129000082, 19.07367584800005 ], [ 84.756846550000034, 19.097642320000091 ], [ 84.76099694100003, 19.101629950000074 ], [ 84.767832879000082, 19.101792710000041 ], [ 84.775238477000073, 19.100490627000056 ], [ 84.780039910000028, 19.097072658000059 ], [ 84.778330925000034, 19.091009833000044 ], [ 84.751149936000047, 19.053900458000044 ], [ 84.741058790000068, 19.028143622000073 ], [ 84.699473504000082, 18.977484442000048 ], [ 84.679535352000073, 18.945705471000053 ], [ 84.665049675000034, 18.930121161000045 ], [ 84.630869988000029, 18.915716864000046 ], [ 84.547862175000034, 18.796087958000044 ], [ 84.541840040000068, 18.775783596000053 ], [ 84.45, 18.682426198783265 ], [ 84.45, 22.55 ], [ 89.45, 22.55 ], [ 89.45, 21.755136733813583 ], [ 89.44271894600007, 21.746649481000077 ] ] ] } },
{ "type": "Feature", "properties": { }, "geometry": { "type": "MultiPolygon", "coordinates": [ [ [ [ 88.888519727000073, 21.589544989000046 ], [ 88.90202884200005, 21.580267645000049 ], [ 88.911306186000047, 21.566880601000037 ], [ 88.913910352000073, 21.548407294000071 ], [ 88.907969597000033, 21.53070709800005 ], [ 88.89576256600003, 21.528469143000052 ], [ 88.879730665000068, 21.529974677000041 ], [ 88.862478061000047, 21.523586330000057 ], [ 88.838715040000068, 21.531927802000041 ], [ 88.830821160000028, 21.577378648000035 ], [ 88.841319207000083, 21.61399974200009 ], [ 88.872894727000073, 21.595526434000078 ], [ 88.888519727000073, 21.589544989000046 ] ] ], [ [ [ 89.139008009000065, 21.766831773000035 ], [ 89.144704623000052, 21.739325262000079 ], [ 89.13249759200005, 21.721625067000048 ], [ 89.102305535000028, 21.736761786000045 ], [ 89.051524285000028, 21.793198960000041 ], [ 89.051442905000044, 21.797105210000041 ], [ 89.057790561000047, 21.803290106000077 ], [ 89.064219597000033, 21.822088934000078 ], [ 89.06381269600007, 21.841457424000055 ], [ 89.053721550000034, 21.874741929000038 ], [ 89.051117384000065, 21.890326239000046 ], [ 89.044688347000033, 21.907782294000071 ], [ 89.045664910000028, 21.917059637000079 ], [ 89.057383660000028, 21.917669989000046 ], [ 89.061534050000034, 21.914943752000056 ], [ 89.064952019000032, 21.910223700000074 ], [ 89.06763756600003, 21.904364325000074 ], [ 89.07154381600003, 21.890326239000046 ], [ 89.08130944100003, 21.822943427000041 ], [ 89.092784050000034, 21.793402411000045 ], [ 89.115733269000032, 21.781154690000051 ], [ 89.139008009000065, 21.766831773000035 ] ] ], [ [ [ 88.650157097000033, 21.927435614000046 ], [ 88.663259311000047, 21.921291408000059 ], [ 88.670583530000044, 21.907416083000044 ], [ 88.667002800000034, 21.890326239000046 ], [ 88.655284050000034, 21.866603908000059 ], [ 88.649180535000028, 21.842352606000077 ], [ 88.646332227000073, 21.787909247000073 ], [ 88.636241082000083, 21.792669989000046 ], [ 88.599619988000029, 21.803656317000048 ], [ 88.591807488000029, 21.804388739000046 ], [ 88.590505405000044, 21.812892971000053 ], [ 88.584971550000034, 21.826605536000045 ], [ 88.584320509000065, 21.835760809000078 ], [ 88.586273634000065, 21.843003648000035 ], [ 88.598643425000034, 21.86985911700009 ], [ 88.61646569100003, 21.897935289000088 ], [ 88.636241082000083, 21.921372789000088 ], [ 88.650157097000033, 21.927435614000046 ] ] ] ] } },
{ "type": "Feature", "properties": { }, "geometry": { "type": "MultiPolygon", "coordinates": [ [ [ [ 88.090017123000052, 21.808661200000074 ], [ 88.119313998000052, 21.859523830000057 ], [ 88.146739129000082, 21.86985911700009 ], [ 88.167002800000034, 21.765448309000078 ], [ 88.16342207100007, 21.705471096000053 ], [ 88.132578972000033, 21.684963283000059 ], [ 88.144379102000073, 21.657782294000071 ], [ 88.146006707000083, 21.643744208000044 ], [ 88.139414910000028, 21.63031647300005 ], [ 88.130056186000047, 21.625921942000048 ], [ 88.11850019600007, 21.62767161700009 ], [ 88.091563347000033, 21.636542059000078 ], [ 88.063487175000034, 21.636664130000042 ], [ 88.051768425000034, 21.641587632000039 ], [ 88.043142123000052, 21.657619533000059 ], [ 88.04224694100003, 21.668158270000049 ], [ 88.043955925000034, 21.680853583000044 ], [ 88.050547722000033, 21.70538971600007 ], [ 88.090017123000052, 21.808661200000074 ] ] ], [ [ [ 88.072276238000029, 21.856756903000075 ], [ 88.071055535000028, 21.873602606000077 ], [ 88.07390384200005, 21.892157294000071 ], [ 88.077321811000047, 21.90460846600007 ], [ 88.084727410000028, 21.921576239000046 ], [ 88.094248894000032, 21.937892971000053 ], [ 88.105723504000082, 21.94757721600007 ], [ 88.118907097000033, 21.945013739000046 ], [ 88.132578972000033, 21.920477606000077 ], [ 88.125010613000029, 21.888657945000091 ], [ 88.104991082000083, 21.861151434000078 ], [ 88.080902540000068, 21.849351304000038 ], [ 88.072276238000029, 21.856756903000075 ] ] ] ] } }
]
}
